CZ-2D R/B               
1 28738U 05024B   25068.97493947  .00027430  00000+0  71511-3 0  9995
2 28738  97.3705  72.1093 0004036 275.4819  84.5966 15.38809001 83365
ALOS (DAICHI)           
1 28931U 06002A   25068.96641238  .00003698  00000+0  65200-3 0  9992
2 28931  98.0734  23.3200 0002126  61.5870 298.5549 14.68106891 20316
H-2A R/B                
1 28932U 06002B   25069.22498321  .00011245  00000+0  69010-3 0  9996
2 28932  98.1998 183.2636 0061233  35.9897 324.5429 15.08721331 39445
RESURS-DK 1             
1 29228U 06021A   25068.62547507  .00004418  00000+0  27655-3 0  9993
2 29228  69.9332  99.4868 0007404 301.3360  58.7079 15.10125814 32360
GENESIS 1               
1 29252U 06029A   25068.94282737  .00099573  00000+0  90431-3 0  9992
2 29252  64.5056 333.3134 0030888 294.2265  65.5655 15.66830951 31780
CZ-4B R/B               
1 29507U 06046C   25069.08432198  .00007859  00000+0  44789-3 0  9999
2 29507  97.6097 109.9753 0038253  87.1191 273.4416 15.12439075  4890
CZ-2C R/B               
1 31114U 07010B   25068.91240738  .00000303  00000+0  15916-3 0  9993
2 31114  98.3628 196.0536 0057980 275.1176  84.3386 14.20064834927941
COSMO-SKYMED 1          
1 31598U 07023A   25069.19498185  .00001184  00000+0  15521-3 0  9995
2 31598  97.8917 254.5271 0001353  81.5354 278.6012 14.82168001960601
GENESIS 2               
1 31789U 07028A   25068.90928012  .00079632  00000+0  93340-3 0  9995
2 31789  64.4815  22.3278 0014829 318.8096  41.1928 15.60932123978529
COSMOS 2428             
1 31792U 07029A   25068.92490175 -.00000157  00000+0 -58489-4 0  9990
2 31792  70.9389 249.0492 0004350   5.6727 354.4442 14.12849303912574
SL-16 R/B               
1 31793U 07029B   25068.89065091  .00000332  00000+0  19715-3 0  9993
2 31793  70.9750 219.1712 0002271 258.3729 215.6819 14.14759131913779
KORONAS-FOTON           
1 33504U 09003A   25069.11717223  .00011799  00000+0  35599-3 0  9993
2 33504  82.4325 292.0872 0013523  25.2944 334.8957 15.34055596889817
CZ-2C R/B               
1 37731U 11030B   25068.91963025  .00002650  00000+0  35050-3 0  9990
2 37731  97.8031  30.1023 0055764  96.8384 329.8994 14.79701716736121
H-2A R/B                
1 38341U 12025E   25068.82549956  .00006739  00000+0  65567-3 0  9994
2 38341  98.4298   3.7808 0049090  65.2707 295.3608 14.91998403693757
SHIJIAN-16 (SJ-16)      
1 39358U 13057A   25069.23189041  .00003692  00000+0  37601-3 0  9993
2 39358  74.9739 154.2860 0018107 277.8621  82.0511 14.90898577617239
SL-4 R/B                
1 39679U 14021B   25068.87649977  .00013064  00000+0  38568-3 0  9996
2 39679  51.6102 302.3711 0119369 222.9883 136.1723 15.28510594600280
ALOS-2                  
1 39766U 14029A   25069.24545820  .00003585  00000+0  48652-3 0  9997
2 39766  97.9194 168.0754 0001604 100.4113 259.7280 14.79487336583016
YAOGAN-29               
1 41038U 15069A   25069.18092255  .00001025  00000+0  13462-3 0  9997
2 41038  98.0434  91.0999 0002955  92.9285 267.2266 14.82456347501864
ASTRO-H (HITOMI)        
1 41337U 16012A   25068.67508086  .00005903  00000+0  37695-3 0  9998
2 41337  30.9997 187.0029 0009883 267.7708  92.1798 15.07150634497063
HXMT (HUIYAN)           
1 42758U 17034A   25069.16058214  .00009020  00000+0  51810-3 0  9998
2 42758  43.0126 235.3356 0035696  97.1698 263.3209 15.12199755427272
CZ-2C R/B               
1 43521U 18054D   25068.83811795  .00035498  00000+0  71532-3 0  9995
2 43521  35.1388 215.9137 0041417  45.1399 315.2678 15.44597660371731
SAOCOM 1A               
1 43641U 18076A   25069.13602467  .00001000  00000+0  13225-3 0  9997
2 43641  97.8891 257.5338 0001330  89.8266 270.3099 14.82144900347367
H-2A R/B                
1 43682U 18084L   25068.88085006  .00025169  00000+0  95167-3 0  9993
2 43682  98.8606 208.2616 0035801 196.3931 163.6148 15.26362885349861
SAOCOM 1B               
1 46265U 20059A   25069.16730301  .00001058  00000+0  13940-3 0  9995
2 46265  97.8899 256.6705 0001299  90.0537 270.0825 14.82162513244761
CSS (TIANHE)            
1 48274U 21035A   25068.90979964  .00020072  00000+0  23303-3 0  9994
2 48274  41.4636 265.2033 0007137 314.9348  45.0912 15.61255575220638
COSMOS 2550             
1 48865U 21056A   25069.07221731  .00000053  00000+0  74381-5 0  9995
2 48865  67.1414  63.9561 0008285 269.3910  90.6295 15.33830336207554
CZ-2C R/B               
1 52794U 22058K   25068.83510590  .00024382  00000+0  66406-3 0  9999
2 52794  50.1961   5.7956 0064249 126.8860 233.8015 15.35232587153764
XRISM                   
1 57800U 23137A   25068.53110672  .00009544  00000+0  62213-3 0  9990
2 57800  31.0023 116.7027 0007928 328.9242  31.0925 15.06617697 82661
ACS3                    
1 59588U 24077B   25068.94462884  .00008864  00000+0  90711-2 0  9996
2 59588  97.4918  84.2561 0050220 138.4853 222.0133 13.75995788 43835
NOAA 15                 
1 25338U 98030A   25069.16508907  .00000346  00000+0  16016-3 0  9998
2 25338  98.5459  96.4556 0009116 265.9741  94.0398 14.26903967395365
DMSP 5D-3 F16 (USA 172) 
1 28054U 03048A   25069.18352146  .00000334  00000+0  19876-3 0  9999
2 28054  99.0193  84.1691 0007683  28.9126  59.9781 14.14300116103872
NOAA 18                 
1 28654U 05018A   25069.17193584  .00000365  00000+0  21691-3 0  9994
2 28654  98.8472 149.6657 0014492  33.1800 327.0279 14.13536768 20835
METEOSAT-9 (MSG-2)      
1 28912U 05049B   25068.65664687  .00000110  00000+0  00000+0 0  9999
2 28912   8.3005  58.5453 0000766 336.4003  54.8167  1.00278520  2354
EWS-G1 (GOES 13)        
1 29155U 06018A   25068.97070590 -.00000198  00000+0  00000+0 0  9992
2 29155   3.3222  82.0824 0066030 261.8019 172.0671  0.98833142 68794
DMSP 5D-3 F17 (USA 191) 
1 29522U 06050A   25069.12966989  .00000382  00000+0  22062-3 0  9990
2 29522  98.7429  80.2210 0009043 305.0464  54.9861 14.14773340946794
FENGYUN 3A              
1 32958U 08026A   25068.81704168  .00000314  00000+0  16996-3 0  9990
2 32958  98.6383  14.7509 0009387  32.6632 327.5123 14.19384808869520
NOAA 19                 
1 33591U 09005A   25069.16341781  .00000345  00000+0  20814-3 0  9997
2 33591  99.0084 133.3184 0012816 260.7096  99.2626 14.13304338829197
GOES 14                 
1 35491U 09033A   25068.52105213 -.00000086  00000+0  00000+0 0  9990
2 35491   0.4765  89.5152 0001156 178.0401 339.4093  1.00268928  1930
DMSP 5D-3 F18 (USA 210) 
1 35951U 09057A   25069.19020837  .00000502  00000+0  28464-3 0  9999
2 35951  98.8510  47.5135 0011953 126.1366 234.0915 14.14533175793967
EWS-G2 (GOES 15)        
1 36411U 10008A   25068.76892178  .00000021  00000+0  00000+0 0  9994
2 36411   0.0775  92.5522 0003951 188.4716 224.7562  1.00270730 54988
COMS 1                  
1 36744U 10032A   25068.85360168 -.00000361  00000+0  00000+0 0  9997
2 36744   3.6140  81.3803 0001037 260.7727 261.0595  1.00272531 46431
FENGYUN 3B              
1 37214U 10059A   25069.22854648  .00000212  00000+0  13350-3 0  9992
2 37214  99.0261 106.6787 0022996  62.2214  13.3357 14.14690405741868
SUOMI NPP               
1 37849U 11061A   25069.19278982  .00000185  00000+0  10877-3 0  9997
2 37849  98.7498   9.5098 0001150 147.3452 212.7795 14.19569247692606
METEOSAT-10 (MSG-3)     
1 38552U 12035B   25069.14975297 -.00000023  00000+0  00000+0 0  9994
2 38552   3.5759  62.0311 0001844 251.2551 268.6622  1.00273661 46564
METOP-B                 
1 38771U 12049A   25069.17301514  .00000272  00000+0  14399-3 0  9995
2 38771  98.5901 125.9105 0000459 128.4136 231.7083 14.21447820647336
INSAT-3D                
1 39216U 13038B   25068.82752866 -.00000357  00000+0  00000+0 0  9995
2 39216   0.7237  88.9601 0001977 244.7125 261.4648  1.00276000 42422
FENGYUN 3C              
1 39260U 13052A   25069.18682374  .00000283  00000+0  16538-3 0  9990
2 39260  98.4494  60.8650 0013506 280.7810  79.1844 14.15576479592981
METEOR-M 2              
1 40069U 14037A   25069.17160751  .00000327  00000+0  16952-3 0  9991
2 40069  98.4618  57.8679 0004849 314.4320  45.6460 14.21236337553405
HIMAWARI-8              
1 40267U 14060A   25068.89420030 -.00000293  00000+0  00000+0 0  9990
2 40267   0.0194 150.2391 0000664 207.6882 272.4710  1.00271198 38097
FENGYUN 2G              
1 40367U 14090A   25068.97752998 -.00000314  00000+0  00000+0 0  9998
2 40367   4.4589  78.4372 0000939 130.8853  49.6679  1.00261744 37389
METEOSAT-11 (MSG-4)     
1 40732U 15034A   25069.17267154  .00000045  00000+0  00000+0 0  9991
2 40732   2.0402  72.1669 0000809 298.8923 228.4855  1.00266929 35350
ELEKTRO-L 2             
1 41105U 15074A   25068.75389149 -.00000133  00000+0  00000+0 0  9991
2 41105   5.5193  76.2310 0003231 224.1207 124.1778  1.00272278 33849
INSAT-3DR               
1 41752U 16054A   25068.90461478 -.00000094  00000+0  00000+0 0  9997
2 41752   0.0353 102.9480 0012644 178.3815 286.1366  1.00271285 31143
HIMAWARI-9              
1 41836U 16064A   25068.89420030 -.00000293  00000+0  00000+0 0  9999
2 41836   0.0206 135.5784 0001129 214.5460 280.3361  1.00270581 30550
GOES 16                 
1 41866U 16071A   25068.88435731 -.00000265  00000+0  00000+0 0  9992
2 41866   0.0918 286.4026 0001865  71.7707  52.7234  1.00269043 30441
FENGYUN 4A              
1 41882U 16077A   25064.77181397 -.00000142  00000+0  00000+0 0  9990
2 41882   1.1256  85.2089 0004762 172.6115 332.1954  1.00660302 30237
CYGFM05                 
1 41884U 16078A   25069.19813168  .00019348  00000+0  51683-3 0  9996
2 41884  34.9624  44.8476 0007881 129.2934 230.8484 15.37156483456997
CYGFM04                 
1 41885U 16078B   25069.19486700  .00020030  00000+0  51236-3 0  9999
2 41885  34.9377  25.6857 0007124 154.0867 206.0209 15.38485450457175
CYGFM02                 
1 41886U 16078C   25069.18751307  .00020893  00000+0  51669-3 0  9994
2 41886  34.9467  26.7338 0008784 141.9861 218.1479 15.39494530457188
